,name,lat,long,address,zipcode
0,5900 Wilshire,34.062144,-118.35869309999998,"5900 Wilshire Blvd, Los Angeles, CA 90036, USA",90036
1,777 Tower,34.0484454,-118.2613875,"777 Tower, 777 S Figueroa St, Los Angeles, CA 90017, USA",90017
2,Ahmanson Theatre,34.058248600000006,-118.2473003,"135 N Grand Ave, Los Angeles, CA 90012, USA",90012
3,Alex Theatre,34.1488321,-118.2541877,"216 N Brand Blvd, Glendale, CA 91203, USA",91203
4,"Glendale, California",34.1425078,-118.255075,"Glendale, CA, USA",91203
5,Alvarado Terrace Historic District,34.0470832,-118.2965121,"Los Angeles, CA 90006, USA",90006
6,Andalusia ,37.5442706,-4.7277528,"Andalusia, Spain",90006
7,"Angelino Heights, Los Angeles",34.070288899999994,-118.25479650000001,"Angelino Heights, Los Angeles, CA 90026, USA",90026
8,Angels Flight,34.0513417,-118.2502182,"350 S Grand Ave, Los Angeles, CA 90071, USA",90071
9,Downtown Los Angeles,34.040713000000004,-118.2467693,"Downtown Los Angeles, Los Angeles, CA, USA",90071
10,Angelus Temple,34.0762787,-118.2611031,"1100 Glendale Blvd, Los Angeles, CA 90026, USA",90026
11,Antelope Valley California Poppy Reserve,34.724911600000006,-118.39690619999999,"Antelope Valley California Poppy Reserve State Natural Reserve, 15101 Lancaster Rd, Lancaster, CA 93536, USA",93536
12,The Apple Pan,34.0406896,-118.42785020000001,"10801 W Pico Blvd, Los Angeles, CA 90064, USA",90064
13,Aquarium of the Pacific,33.762524299999995,-118.1967038,"100 Aquarium Way, Long Beach, CA 90802, USA",90802
14,Arroyo Seco ,36.4135756,-121.34243049999999,"Arroyo Seco, California 93960, USA",93960
15,Arroyo Seco Parkway,34.1003169,-118.20169950000002,"Arroyo Seco Pkwy, California, USA",93960
16,Art Center College of Design,34.1688713,-118.18515690000001,"1700 Lida St, Pasadena, CA 91103, USA",91103
17,"Pasadena, California",34.1477849,-118.1445155,"Pasadena, CA, USA",91103
18,Autry National Center,34.14862,-118.281213,"Griffith Park, 4700 Western Heritage Way, Los Angeles, CA 90027, USA",90027
19,Backbone Trail,34.079598,-118.77791940000002,"Backbone Trail, California, USA",90027
20,Baldwin Hills Village,34.0195515,-118.3617279,"The Village Green, Los Angeles, CA 90016, USA",90016
21,Ballona Creek,33.999607,-118.40129820000001,"Ballona Creek, California, USA",90016
22,Banning House,33.43832250000001,-118.4978415,"1 W Banning House Rd, Avalon, CA 90704, USA",90704
23,Banc of California Stadium,34.012638200000005,-118.2841482,"3939 S Figueroa St, Los Angeles, CA 90037, USA",90037
24,Barney's Beanery,34.0908203,-118.37458799999999,"8447 Santa Monica Blvd, West Hollywood, CA 90069, USA",90069
25,Barnsdall Art Park,34.100400799999996,-118.2943922,"Barnsdall Art Park, 4800 Hollywood Blvd, Los Angeles, CA 90027, USA",90027
26,USS Iowa Museum,33.7422615,-118.27728229999998,"250 S Harbor Blvd, Los Angeles, CA 90731, USA",90731
27,Bergamot Station,34.0283062,-118.4677906,"2525 Michigan Ave, Santa Monica, CA 90404, USA",90404
28,Beverly Gardens Park,34.072325299999996,-118.4034489,"Beverly Gardens Park, 9439 Santa Monica Blvd, Beverly Hills, CA 90210, USA",90210
29,Beverly Hills Hotel,34.0818769,-118.4134867,"9641 Sunset Blvd, Beverly Hills, CA 90210, USA",90210
30,Beverly Wilshire Hotel,34.0668449,-118.40084080000001,"9500 Wilshire Blvd, Beverly Hills, CA 90212, USA",90212
31,Big Tujunga Dam,34.2933344,-118.18840700000001,"Big Tujunga Dam, Tujunga, CA 91042, USA",91042
32,Millennium Biltmore Hotel,34.049799799999995,-118.2540288,"506 S Grand Ave, Los Angeles, CA 90071, USA",90071
33,Biola University,33.9054476,-118.0151797,"13800 Biola Ave, La Mirada, CA 90639, USA",90639
34,Biscuit Company Lofts,34.035653100000005,-118.23281709999999,"1850 Industrial St, Los Angeles, CA 90021, USA",90021
35,Bob Baker Marionette Theater,34.121812799999994,-118.207202,"4949 York Blvd, Los Angeles, CA 90042, USA",90042
36,Bolton Hall ,34.252675,-118.28829170000002,"10110 Commerce Ave, Tujunga, CA 91042, USA",91042
37,Westin Bonaventure Hotel,34.052777299999995,-118.255596,"404 S Figueroa St, Los Angeles, CA 90071, USA",90071
38,"Boyle Heights, Los Angeles",34.0297895,-118.2117257,"Boyle Heights, Los Angeles, CA, USA",90071
39,Bradbury Building,34.050604,-118.24785729999999,"304 S Broadway, Los Angeles, CA 90013, USA",90013
40,Breed Street Shul,34.046878,-118.20963700000001,"247 N Breed St, Los Angeles, CA 90033, USA",90033
41,Broadway Theater District ,40.758728100000006,-73.9853368,"Broadway, New York, NY, USA",90033
42,Bryson Apartment Hotel,34.061437,-118.282544,"2701 Wilshire Blvd, Los Angeles, CA 90057, USA",90057
43,Bullocks Wilshire,34.061399200000004,-118.28842250000001,"3050 Wilshire Blvd, Los Angeles, CA 90005, USA",90005
44,The Bunny Museum,34.1904746,-118.1316075,"2605 Lake Ave, Altadena, CA 91001, USA",91001
45,Burbank City Hall,34.182030700000006,-118.3080741,"275 E Olive Ave, Burbank, CA 91502, USA",91502
46,Burro Flats Painted Cave,34.504185299999996,-119.78761170000001,"Chumash Painted Cave State Historic Park, CA-154, Santa Barbara, CA 93105, USA",93105
47,Cabrillo Beach,33.711010200000004,-118.283293,"Cabrillo Beach, Los Angeles, CA 90731, USA",90731
48,Cabrillo Marine Aquarium,33.7109884,-118.2852845,"3720 Stephen M White Dr, San Pedro, CA 90731, USA",90731
49,California African American Museum,34.0158846,-118.28348390000002,"600 State Dr, Los Angeles, CA 90037, USA",90037
50,California Club,34.050389100000004,-118.2566385,"538 Flower St, Los Angeles, CA 90071, USA",90071
51,California Institute of the Arts,34.39268980000001,-118.5672229,"24700 McBean Pkwy, Valencia, CA 91355, USA",91355
52,California Institute of Technology,34.1376576,-118.12526899999999,"1200 E California Blvd, Pasadena, CA 91125, USA",91125
53,California Science Center,34.015787700000004,-118.2862095,"700 Exposition Park Dr, Los Angeles, CA 90037, USA",90037
54,Campo de Cahuenga,34.1398141,-118.3624071,"3919 Lankershim Blvd, Studio City, CA 91604, USA",91604
55,Canter's,34.078767299999996,-118.36179920000001,"419 N Fairfax Ave, Los Angeles, CA 90036, USA",90036
56,Capitol Records Building,34.103244000000004,-118.32639420000001,"1750 Vine St, Los Angeles, CA 90028, USA",90028
57,Carroll Avenue,34.06969539999999,-118.25505079999999,"Carroll Ave, Los Angeles, CA 90026, USA",90026
58,Casa de Rosas,34.03104709999999,-118.28380209999999,"2600 S. Hoover Street, W Adams Blvd, Los Angeles, CA 90007, USA",90007
59,Case Study Houses,34.1005052,-118.37029129999999,"BY RESERVATION ONLY, 1635 Woods Dr, West Hollywood, CA 90069, USA",90069
60,Cathedral of Our Lady of the Angels,34.0577215,-118.24499479999999,"555 W Temple St, Los Angeles, CA 90012, USA",90012
61,Cathedral of Saint Vibiana,34.0505778,-118.24463329999999,"214 S Main St, Los Angeles, CA 90012, USA",90012
62,CBS Studio Center,34.14460029999999,-118.392351,"4024 Radford Ave, Studio City, CA 91604, USA",91604
63,Celebration Theatre,34.0904167,-118.36717320000001,"1049 Havenhurst Dr, West Hollywood, CA 90046, USA",90046
64,"Central Avenue, Los Angeles, California",33.920932799999996,-118.27296509999998,"S Los Angeles St, Willowbrook, CA 90061, USA",90061
65,Los Angeles Public Library,34.050250899999995,-118.25508889999999,"630 W 5th St, Los Angeles, CA 90071, USA",90071
66,Château Élysée,34.1046389,-118.3190476,"5930 Franklin Ave, Los Angeles, CA 90028, USA",90028
67,Chateau Marmont,34.0982596,-118.3684936,"8221 Sunset Blvd, Los Angeles, CA 90046, USA",90046
68,Chavez Ravine Arboretum,34.0831922,-118.2464777,"Chavez Ravine Arboretum, 929 Academy Rd, Los Angeles, CA 90012, USA",90012
69,Chemosphere,34.1275746,-118.368799,"7776 Torreyson Dr, Los Angeles, CA 90046, USA",90046
70,Chicken Boy,34.1085305,-118.1943164,"5558 N Figueroa St, Los Angeles, CA 90042, USA",90042
71,"Chinatown, Los Angeles, California",34.0623339,-118.23833090000001,"Chinatown, Los Angeles, CA, USA",90042
72,Chinese Cemetery of Los Angeles,34.0361961,-118.1724247,"East Los Angeles, CA 90022, USA",90022
73,The Church On the Way,34.200761,-118.444984,"14300 Sherman Way, Van Nuys, CA 91405, USA",91405
74,Cinerama Dome,34.09757329999999,-118.3281753,"6360 Sunset Blvd, Los Angeles, CA 90028, USA",90028
75,William Andrews Clark Memorial Library,34.0333271,-118.3144142,"2520 Cimarron St, Los Angeles, CA 90018, USA",90018
76,Clifton's Cafeteria,34.045420899999996,-118.25300049999998,"648 S Broadway, Los Angeles, CA 90014, USA",90014
77,Craft and Folk Art Museum,34.0621972,-118.3555389,"5814 Wilshire Blvd, Los Angeles, CA 90036, USA",90036
78,"Crenshaw, Los Angeles",34.0181993,-118.34035060000001,"Crenshaw, Los Angeles, CA, USA",90036
79,Crossroads of the World,34.0981907,-118.33565949999999,"6671 Sunset Blvd, Los Angeles, CA 90028, USA",90028
80,Descanso Gardens,34.2014185,-118.21120049999999,"Descanso Gardens, 1418 Descanso Dr, La Cañada Flintridge, CA 91011, USA",91011
81,Disneyland,33.8120918,-117.91897420000001,"1313 Disneyland Dr, Anaheim, CA 92802, USA",92802
82,"Anaheim, California",33.8365932,-117.91430120000001,"Anaheim, CA, USA",92802
83,Dockweiler State Beach,33.93053039999999,-118.4356632,"Dockweiler Beach, 12000 Vista Del Mar, Playa Del Rey, CA 90293, USA",90293
84,Dodger Stadium,34.073851,-118.23995829999998,"1000 Vin Scully Ave, Los Angeles, CA 90012, USA",90012
85,Dolby Theatre,34.102691899999996,-118.3404156,"6801 Hollywood Blvd, Hollywood, CA 90028, USA",90028
86,Dominguez Rancho Adobe,33.8670619,-118.21747830000001,"18127 Alameda St, Compton, CA 90220, USA",90220
87,Drum Barracks,33.784471,-118.25757,"1052 N Banning Blvd, Wilmington, CA 90744, USA",90744
88,Dunbar Hotel,34.006821,-118.256716,"4225 S Central Ave, Los Angeles, CA 90011, USA",90011
89,Dignity Health Sports Park,33.8643777,-118.2611426,"18400 S Avalon Blvd, Carson, CA 90746, USA",90746
90,"Eagle Rock, Los Angeles",34.13915679999999,-118.21408829999999,"Eagle Rock, Los Angeles, CA, USA",90746
91,Eagle Rock Community Cultural Center,34.1396156,-118.21491699999999,"2225 Colorado Blvd, Los Angeles, CA 90041, USA",90041
92,Eames House,34.030013000000004,-118.51944590000001,"203 Chautauqua Blvd, Pacific Palisades, CA 90272, USA",90272
93,Ebell of Los Angeles,34.06120479999999,-118.3248513,"743 S Lucerne Blvd, Los Angeles, CA 90005, USA",90005
94,The Echo ,34.077673700000005,-118.260153,"1822 Sunset Blvd, Los Angeles, CA 90026, USA",90026
95,"Echo Park, Los Angeles",34.078159299999996,-118.2605574,"Echo Park, Los Angeles, CA, USA",90026
96,El Escorpión Park,34.200125,-118.66436100000001,"El Escorpión Park, Los Angeles, CA 91307, USA",91307
97,El Pino ,34.0432495,-118.19237,"500-598 N Indiana St, Los Angeles, CA 90063, USA",90063
98,El Rey Theatre,34.0625,-118.34889199999999,"5515 Wilshire Blvd, Los Angeles, CA 90036, USA",90036
99,Electric Fountain,34.0672822,-118.4104408,"9800 Wilshire Blvd, Beverly Hills, CA 90212, USA",90212
100,Elephant Theatre Company,37.9816224,-122.5615121,"100 Shaw Dr, San Anselmo, CA 94960, USA",94960
101,Elkay Apartments,34.0657194,-118.45279099999999,"638-642 Kelton Ave, Los Angeles, CA 90024, USA",90024
102,"Elysian Park, Los Angeles",34.0838043,-118.23658119999999,"Elysian Park, Los Angeles, CA, USA",90024
103,Encino Oak Tree,34.1531071,-118.511556,"4601 Charmion Ln, Encino, CA 91316, USA",91316
104,Ennis House,34.116192600000005,-118.29278959999999,"2607 Glendower Ave, Los Angeles, CA 90027, USA",90027
105,Estrada Courts,34.02167,-118.20853020000001,"3232 Estrada St, Los Angeles, CA 90023, USA",90023
106,Exposition Park ,34.0149382,-118.28619840000002,"Exposition Park, 700 Exposition Park Dr, Los Angeles, CA 90037, USA",90037
107,Exposition Park Rose Garden,34.017350799999996,-118.2859244,"Exposition Park Rose Garden, 701 State Dr, Los Angeles, CA 90037, USA",90037
108,"Faith Bible Church, Northridge, California",34.2196508,-118.5089956,"8212 Louise Ave, Northridge, CA 91325, USA",91325
109,Fashion Institute of Design & Merchandising,34.0441931,-118.26001720000001,"919 S Grand Ave, Los Angeles, CA 90015, USA",90015
110,"Federal Correctional Institution, Terminal Island",33.729560799999994,-118.26769250000001,"1299 S Seaside Ave, San Pedro, CA 90731, USA",90731
111,"Federal Reserve Bank of San Francisco, Los Angeles Branch",34.0434963,-118.25971659999999,"950 S Grand Ave, Los Angeles, CA 90015, USA",90015
112,Felipe De Neve Branch,34.06331289999999,-118.28397109999999,"2820 W 6th St, Los Angeles, CA 90057, USA",90057
113,Figueroa Street Tunnels,34.075695,-118.2313922,"Figueroa St Tunnel, Los Angeles, CA 90012, USA",90012
114,Los Angeles Flower District,34.0402803,-118.2498308,"766 Wall St, Los Angeles, CA 90014, USA",90014
115,"Forest Lawn Memorial Park, Glendale",34.12462670000001,-118.2511632,"Forest Lawn, 1712 S Glendale Ave, Glendale, CA 91205, USA",91205
116,Fort MacArthur,33.7120951,-118.2960341,"3601 S Gaffey St, San Pedro, CA 90731, USA",90731
117,Fox Bruin Theater,34.062676,-118.4472527,"961 Broxton Ave, Los Angeles, CA 90024, USA",90024
118,"Fox Theater, Westwood Village",34.062676,-118.4472527,"961 Broxton Ave, Los Angeles, CA 90024, USA",90024
119,Fred C. Nelles Youth Correctional Facility,33.9756002,-118.0500779,"11850 Whittier Blvd, Whittier, CA 90606, USA",90606
120,Frederick Mitchell Mooers House,34.053189200000006,-118.27564939999999,"818 S Bonnie Brae St, Los Angeles, CA 90057, USA",90057
121,Gamble House ,34.15164620000001,-118.16095259999999,"4 Westmoreland Pl, Pasadena, CA 91103, USA",91103
122,Garber House ,37.8748204,-122.26611979999998,"1827 Oxford St, Berkeley, CA 94709, USA",94709
123,Gardena Willows Wetland Preserve,33.8750722,-118.29471170000001,"Gardena Willows Wetlands Preserve, 1202 W 170th St, Gardena, CA 90247, USA",90247
124,Garfield Building ,34.044739,-118.25599709999999,"403 W 8th St, Los Angeles, CA 90014, USA",90014
125,Geffen Playhouse,34.06351179999999,-118.44439320000001,"10886 Le Conte Ave, Los Angeles, CA 90024, USA",90024
126,General William J. Fox Airfield,34.738670299999995,-118.21633059999999,"General William J. Fox Airfield, 4725 William J Barnes Ave, Lancaster, CA 93536, USA",93536
127,George R. Kress House,34.0522342,-118.24368490000002,"Los Angeles, CA 90012, USA",90012
128,Gerry Building,34.040287,-118.25435700000001,"910 S Los Angeles St, Los Angeles, CA 90015, USA",90015
129,Getty Center,34.07803579999999,-118.47409540000001,"1200 Getty Center Dr, Los Angeles, CA 90049, USA",90049
130,Glassell Park Elementary School,34.1047011,-118.23621570000002,"2211 W Ave 30, Los Angeles, CA 90065, USA",90065
131,Golden Gate Theater,37.7825,-122.4111111,"1 Taylor St, San Francisco, CA 94102, USA",94102
132,The Grammy Museum,34.0446623,-118.26463559999999,"800 W Olympic Blvd, Los Angeles, CA 90015, USA",90015
133,Granada Shoppes and Studios,34.0605219,-118.2836878,"666 S Lafayette Park Pl, Los Angeles, CA 90057, USA",90057
134,Grand Central Market,34.05065,-118.24879720000001,"317 S Broadway, Los Angeles, CA 90013, USA",90013
135,Grand Park,34.05558360000001,-118.2457138,"Grand Park LA, 200 N Grand Ave, Los Angeles, CA 90012, USA",90012
136,Grauman's Chinese Theater,34.102023100000004,-118.34097120000001,"6925 Hollywood Blvd, Hollywood, CA 90028, USA",90028
137,Grauman's Egyptian Theatre,34.1009124,-118.3366101,"6712 Hollywood Blvd, Los Angeles, CA 90028, USA",90028
138,Great Wall of Los Angeles,34.179235799999994,-118.41428970000001,"12900 Oxnard St, North Hollywood, CA 91606, USA",91606
139,Greek Theatre ,34.1195315,-118.2962896,"2700 N Vermont Ave, Los Angeles, CA 90027, USA",90027
140,Greystone Mansion,34.0923011,-118.4012989,"Greystone Mansion, 905 Loma Vista Dr, Beverly Hills, CA 90210, USA",90210
141,Griffith Observatory,34.1184341,-118.30039350000001,"2800 E Observatory Rd, Los Angeles, CA 90027, USA",90027
142,Griffith Park,34.13655440000001,-118.2942,"Griffith Park, 4730 Crystal Springs Dr, Los Angeles, CA 90027, USA",90027
143,Griffith Park Zoo,34.1339393,-118.2890378,"4801 Griffith Park Dr, Los Angeles, CA 90027, USA",90027
144,The Grove at Farmers Market,34.072225,-118.35813329999999,"189 The Grove Dr, Los Angeles, CA 90036, USA",90036
145,The Haas Building,34.045105,-118.25283400000001,"219 7th St, Los Angeles, CA 90014, USA",90014
146,Hammer Museum,34.05946779999999,-118.44366229999999,"10899 Wilshire Blvd, Los Angeles, CA 90024, USA",90024
147,"Hancock Park, Los Angeles",34.072332700000004,-118.3286614,"Greater Wilshire / Hancock Park, Los Angeles, CA, USA",90024
148,The Hat,34.0371942,-118.1464566,"2300 S Atlantic Blvd, Monterey Park, CA 91754, USA",91754
149,Heritage Square Museum,34.088249700000006,-118.20797560000001,"3800 Homer St, Los Angeles, CA 90031, USA",90031
150,Highland-Camrose Bungalow Village,34.10859,-118.33724679999999,"Los Angeles, CA 90068, USA",90068
151,"Highland Park, Los Angeles",34.1154946,-118.1843898,"Highland Park, Los Angeles, CA, USA",90068
152,"Historic Filipinotown, Los Angeles",34.07026940000001,-118.26803829999999,"Historic Filipinotown, Los Angeles, CA, USA",90068
153,Hollenbeck Park,34.0400952,-118.2179399,"Hollenbeck Park, 415 S St Louis St, Los Angeles, CA 90033, USA",90033
154,Hollywood and Highland Center,34.102691899999996,-118.3404156,"6801 Hollywood Blvd, Hollywood, CA 90028, USA",90028
155,Hollywood and Vine,34.102073700000005,-118.32646299999999,"Hollywood Blvd, Los Angeles, CA 90028, USA",90028
156,Hollywood Bowl,34.112224,-118.33912790000001,"2301 N Highland Ave, Los Angeles, CA 90068, USA",90068
157,Hollywood Center Studios,34.0897788,-118.33550729999999,"1040 N Las Palmas Ave, Los Angeles, CA 90038, USA",90038
158,Hollywood Forever Cemetery,34.0888841,-118.31906299999999,"6000 Santa Monica Blvd, Los Angeles, CA 90038, USA",90038
159,Hollywood Heritage Museum,34.108532399999994,-118.33612040000001,"2100 N Highland Ave, Los Angeles, CA 90068, USA",90068
160,Hollywood High School,34.099165,-118.3400514,"1521 N Highland Ave, Los Angeles, CA 90028, USA",90028
161,Hollywood Melrose Hotel,34.0833333,-118.31305559999998,"5162 Melrose Ave, Los Angeles, CA 90038, USA",90038
162,Hollywood Museum,34.10108719999999,-118.33839180000001,"1660 N Highland Ave, Hollywood, CA 90028, USA",90028
163,Hollywood Reservoir,34.119768900000004,-118.3308532,"Hollywood Reservoir, Los Angeles, CA 90068, USA",90068
164,Hollywood Roosevelt Hotel,34.1012777,-118.34161280000001,"7000 Hollywood Blvd, Los Angeles, CA 90028, USA",90028
165,Hollywood Sign,34.1341151,-118.32154820000001,"Los Angeles, CA 90068, USA",90068
166,Hollywood Walk of Fame,34.1015549,-118.3268568,"Hollywood Boulevard, Vine St, Los Angeles, CA 90028, USA",90028
167,Hotel Café,34.100401700000006,-118.32983270000001,"1623 N Cahuenga Blvd, Los Angeles, CA 90028, USA",90028
168,Hotel Chancellor,37.7886997,-122.40878889999999,"433 Powell St, San Francisco, CA 94102, USA",94102
169,Hsi Lai Temple,33.97568820000001,-117.9677071,"3456 Glenmark Dr, Hacienda Heights, CA 91745, USA",91745
170,Huntington Library,34.12904520000001,-118.1145242,"The Huntington Library, Art Museum, and Botanical Gardens, 1151 Oxford Rd, San Marino, CA 91108, USA",91108
171,"San Marino, California",34.121396999999995,-118.1064585,"San Marino, CA 91108, USA",91108
172,Inglewood Park Cemetery,33.970889,-118.343547,"720 E Florence Ave, Inglewood, CA 90301, USA",90301
173,Japanese American National Museum,34.0496239,-118.23858870000001,"100 N Central Ave, Los Angeles, CA 90012, USA",90012
174,The Japanese Garden,34.1829524,-118.4809759,"The Japanese Garden, 6100 Woodley Ave, Lake Balboa, CA 91406, USA",91406
175,Jardinette Apartments,34.0847385,-118.30997020000001,"5128 Marathon St, Los Angeles, CA 90038, USA",90038
176,Jet Propulsion Laboratory,34.2013081,-118.17139440000001,"4800 Oak Grove Dr, Pasadena, CA 91109, USA",91109
177,"Pasadena, California",34.1477849,-118.1445155,"Pasadena, CA, USA",91109
178,Jewelry District ,34.047575099999996,-118.2536906,"412 W 6th St, Los Angeles, CA 90014, USA",90014
179,John Sowden House,34.1059008,-118.30122050000001,"5121 Franklin Ave, Los Angeles, CA 90027, USA",90027
180,Johnie's Coffee Shop,34.06328999999999,-118.36153190000002,"6099 Wilshire Blvd, Los Angeles, CA 90048, USA",90048
181,Judson Studios,34.1130509,-118.17992779999999,"200 S Ave 66, Los Angeles, CA 90042, USA",90042
182,Jumbo's Clown Room,34.1020277,-118.3024192,"5153 Hollywood Blvd, Los Angeles, CA 90027, USA",90027
183,Kelton Apartments,34.067671600000004,-118.45322949999999,"520 Kelton Ave, Los Angeles, CA 90024, USA",90024
184,Knott's Berry Farm,33.84430379999999,-118.0002265,"8039 Beach Blvd, Buena Park, CA 90620, USA",90620
185,Korean Bell of Friendship,33.7097361,-118.2938,"3601 S Gaffey St, San Pedro, CA 90731, USA",90731
186,"Koreatown, Los Angeles, California",34.0597117,-118.3008918,"Koreatown, Los Angeles, CA, USA",90731
187,Kronish House,34.0879925,-118.4007706,"9439 Sunset Blvd, Beverly Hills, CA 90210, USA",90210
188,L.A. Live,34.044750799999996,-118.2653642,"800 W Olympic Blvd, Los Angeles, CA 90015, USA",90015
189,La Brea Tar Pits,34.063804299999994,-118.355453,"5801 Wilshire Blvd, Los Angeles, CA 90036, USA",90036
190,"Lafayette Park, Los Angeles",34.0618422,-118.2836517,"Lafayette Park, 5077006901, Los Angeles, CA 90005, USA",90005
191,Landfair Apartments,34.0663971,-118.4491148,"625 Landfair Ave, Los Angeles, CA 90024, USA",90024
192,"Laurel Canyon, Los Angeles",34.1173429,-118.3753081,"Laurel Canyon, Los Angeles, CA 90046, USA",90046
193,Leimert Park,34.01067020000001,-118.3234759,"Leimert Park, Los Angeles, CA, USA",90046
194,The Leo Magnus Cricket Complex,34.178774100000005,-118.47645049999998,"6350 Woodley Ave, Van Nuys, CA 91436, USA",91436
195,Leonis Adobe,34.1576729,-118.63982390000001,"23537 Calabasas Rd, Calabasas, CA 91302, USA",91302
196,Levitated Mass,34.06443170000001,-118.3599374,"5905 Wilshire Blvd, Los Angeles, CA 90036, USA",90036
197,Lincoln Heights Branch,34.07616420000001,-118.21400630000001,"2530 Workman St, Los Angeles, CA 90031, USA",90031
198,"Little Armenia, Los Angeles",34.098127399999996,-118.30053329999998,"Little Armenia, Los Angeles, CA, USA",90031
199,"Little Ethiopia, Los Angeles",34.057384000000006,-118.3640916,"Little Ethiopia, Los Angeles, CA, USA",90031
200,Llano del Rio,34.506471999999995,-117.827083,"34°30'23.3""N 117°49'37.5""W, Llano, CA 93544, USA",93544
201,United States Post Office–Long Beach Main,33.770831799999996,-118.1891384,"300 Long Beach Blvd, Long Beach, CA 90802, USA",90802
202,Los Angeles Air Force Base,33.9180881,-118.3820455,"482 N Aviation Blvd, El Segundo, CA 90245, USA",90245
203,Los Angeles Aqueduct,34.3226615,-118.49744129999999,"Sylmar, CA 91342, USA",91342
204,Los Angeles Central Library,34.050250899999995,-118.25508889999999,"630 W 5th St, Los Angeles, CA 90071, USA",90071
205,Los Angeles City Hall,34.0537136,-118.2426533,"200 N Spring St, Los Angeles, CA 90012, USA",90012
206,Los Angeles Convention Center,34.0403207,-118.26956240000001,"1201 S Figueroa St, Los Angeles, CA 90015, USA",90015
207,Los Angeles County Arboretum and Botanic Garden,34.1440502,-118.0513836,"Los Angeles County Arboretum, 301 N Baldwin Ave, Arcadia, CA 91007, USA",91007
208,Los Angeles County Coroner's Office,34.0603001,-118.21325719999999,"1104 N Mission Rd, Los Angeles, CA 90033, USA",90033
209,Los Angeles County Museum of Art,34.0639323,-118.35922930000001,"5905 Wilshire Blvd, Los Angeles, CA 90036, USA",90036
210,Los Angeles Fire Department Museum and Memorial,34.0960581,-118.32992320000001,"1355 N Cahuenga Blvd, Los Angeles, CA 90028, USA",90028
211,Los Angeles International Airport,33.9415889,-118.40853,"Los Angeles International Airport (LAX), 1 World Way, Los Angeles, CA 90045, USA",90045
212,"Westchester, Los Angeles",33.962590500000005,-118.3987842,"Westchester, Los Angeles, CA, USA",90045
213,Los Angeles Memorial Coliseum,34.0140526,-118.28787539999999,"3911 Figueroa St, Los Angeles, CA 90037, USA",90037
214,Los Angeles Nurses' Club,34.0596722,-118.2609528,"245 Lucas Ave, Los Angeles, CA 90026, USA",90026
215,Los Angeles River bicycle path,33.8481371,-118.2023424,"Los Angeles River Bicycle Path, California, USA",90026
216,Los Angeles State Historic Park,34.06868850000001,-118.23156499999999,"Los Angeles State Historic Park, 1245 N Spring St, Los Angeles, CA 90012, USA",90012
217,Los Angeles Zoo,34.148353799999995,-118.28486409999998,"5333 Zoo Dr, Los Angeles, CA 90027, USA",90027
218,Los Encinos State Historic Park,34.160304499999995,-118.49858059999998,"Los Encinos State Historic Park, 16756 Moorpark St, Encino, CA 91436, USA",91436
219,Lovell House,34.1181649,-118.2878041,"4616 Dundee Dr, Los Angeles, CA 90027, USA",90027
220,Lummis House,34.093169,-118.206999,"200 E Ave 43, Los Angeles, CA 90031, USA",90031
221,Lydecker House,34.13930089999999,-118.38924440000001,"3820 Buena Park Dr, Studio City, CA 91604, USA",91604
222,Madrona Marsh,33.8288656,-118.3417798,"Madrona Marsh Nature Center, 3201 Plaza del Amo, Torrance, CA 90503, USA",90503
223,The Magic Castle,34.1045794,-118.3417899,"The Magic Castle, 7001 Franklin Ave, Los Angeles, CA 90028, USA",90028
224,Malibou Lake,34.107,-118.757,"Malibou Lake, California 91301, USA",91301
225,Malibu Creek,34.0643922,-118.6994433,"Malibu Creek, California 90265, USA",90265
226,Malibu Lagoon State Beach,34.0335749,-118.68043459999998,"Malibu Lagoon State Beach, California 90265, USA",90265
227,Mariachi Plaza,34.04745689999999,-118.2192233,"1831 E 1st St, Los Angeles, CA 90033, USA",90033
228,"Marina del Rey, California",33.980289299999995,-118.45174490000001,"Marina Del Rey, CA 90292, USA",90292
229,Mark Taper Forum,34.0577524,-118.2478388,"135 N Grand Ave, Los Angeles, CA 90012, USA",90012
230,Marvin Braude Mulholland Gateway Park,34.1313765,-118.5531244,"Marvin Braude Mulholland Gateway Park, 3600 Reseda Blvd, Tarzana, CA 91356, USA",91356
231,Mary Andrews Clark Memorial Home,34.05942539999999,-118.2656061,"5153019025, Los Angeles, CA 90017, USA",90017
232,Memorial Branch,34.0572882,-118.33159009999999,"4625 W Olympic Blvd, Los Angeles, CA 90019, USA",90019
233,Mildred E. Mathias Botanical Garden,34.066584000000006,-118.44152199999999,"UCLA Mildred E. Mathias Botanical Garden, 707 Tiverton Dr, Los Angeles, CA 90095, USA",90095
234,Minnie Hill Palmer House,34.2600068,-118.61533429999999,"10385 Shadow Oak Dr, Chatsworth, CA 91311, USA",91311
235,"Miracle Mile, Los Angeles, California",34.059534,-118.3491169,"Miracle Mile, Los Angeles, CA, USA",91311
236,Mission San Fernando Rey de España,34.2729782,-118.46164309999999,"15151 San Fernando Mission Blvd, Mission Hills, CA 91345, USA",91345
237,Mission San Gabriel Arcángel,34.09672010000001,-118.1068683,"428 S Mission Dr, San Gabriel, CA 91776, USA",91776
238,Montebello Genocide Memorial,34.0284434,-118.1309344,"901 Via San Clemente, Montebello, CA 90640, USA",90640
239,Mount Wilson Observatory,34.225286700000005,-118.0572966,"Los Angeles, CA, USA",90640
240,Mulholland Drive,34.11640870000001,-118.34310239999999,"6968 Mulholland Dr, Los Angeles, CA 90068, USA",90068
241,Mulholland Highway,34.1086294,-118.76604569999999,"Mulholland Hwy, California, USA",90068
242,"Museum of Contemporary Art, Los Angeles",34.053343700000006,-118.2503598,"250 S Grand Ave, Los Angeles, CA 90012, USA",90012
243,Museum of Jurassic Technology,34.02588370000001,-118.395063,"9341 Venice Blvd, Culver City, CA 90232, USA",90232
244,Museum of Tolerance,34.053685200000004,-118.40165970000001,"9786 W Pico Blvd, Los Angeles, CA 90035, USA",90035
245,Los Angeles Music Center,34.0562974,-118.248733,"135 N Grand Ave, Los Angeles, CA 90012, USA",90012
246,Musso & Frank Grill,34.1017527,-118.335361,"6667 Hollywood Blvd, Hollywood, CA 90028, USA",90028
247,Natural History Museum of Los Angeles County,34.0169567,-118.2887703,"900 W Exposition Blvd, Los Angeles, CA 90007, USA",90007
248,Nethercutt Collection,34.307379299999994,-118.4639652,"15151 Bledsoe St, Sylmar, CA 91342, USA",91342
249,Neutra Office Building,34.09951029999999,-118.2592385,"2379 Glendale Blvd, Los Angeles, CA 90039, USA",90039
250,"NoHo Arts District, Los Angeles",34.164998,-118.3747024,"NoHo Arts District, Los Angeles, CA, USA",90039
251,Norms Restaurants,34.0799624,-118.3762805,"470 N La Cienega Blvd, West Hollywood, CA 90048, USA",90048
252,Norton Simon Museum,34.1463464,-118.1592625,"411 W Colorado Blvd, Pasadena, CA 91105, USA",91105
253,Nuart Theatre,34.0463125,-118.4478207,"11272 Santa Monica Blvd, Los Angeles, CA 90025, USA",90025
254,"Old Bank District, Los Angeles",34.0479323,-118.2477023,"411 S Main St, Los Angeles, CA 90013, USA",90013
255,Old Plaza Firehouse,34.056017100000005,-118.23878870000001,"501 N Los Angeles St, Los Angeles, CA 90012, USA",90012
256,Old Santa Susana Stage Road,34.261573999999996,-118.62893000000001,"Unnamed Road, Chatsworth, CA 91311, USA",91311
257,Old Town Pasadena,34.1459468,-118.150228,"1 E Colorado Blvd, Pasadena, CA 91105, USA",91105
258,Old Warner Brothers Studio,34.09742429999999,-118.31687040000001,"5800 Sunset Blvd, Los Angeles, CA 90028, USA",90028
259,Oldest McDonald's restaurant,33.9474096,-118.11790690000001,"10207 Lakewood Blvd, Downey, CA 90240, USA",90240
260,"Downey, California",33.9401088,-118.13315929999999,"Downey, CA, USA",90240
261,Olvera Street,34.05757620000001,-118.2379277,"Olvera St, Los Angeles, CA 90012, USA",90012
262,O'Melveny Park,34.3093955,-118.51361680000001,"O'Melveny Park, 17300 Sesnon Blvd, Granada Hills, CA 91344, USA",91344
263,Open Fist Theatre Company,34.1164165,-118.2518773,"3269 Casitas Ave, Los Angeles, CA 90039, USA",90039
264,Orcutt Ranch Horticulture Center,34.2183389,-118.64022779999999,"23600 Roscoe Blvd, West Hills, CA 91304, USA",91304
265,Original Tommy's,34.069450399999994,-118.27624509999998,"2575 West, Beverly Blvd, Los Angeles, CA 90057, USA",90057
266,Pacific Asia Museum,34.146669,-118.1410259,"46 N Los Robles Ave, Pasadena, CA 91101, USA",91101
267,"Pasadena, California",34.1477849,-118.1445155,"Pasadena, CA, USA",91101
268,Pacific Electric Railroad Bridge,33.8375713,-118.31184250000001,"Torrance Blvd, Torrance, CA 90501, USA",90501
269,"Torrance, California",33.835849200000006,-118.34062879999999,"Torrance, CA, USA",90501
270,Pacoima Dam,34.3348674,-118.39513259999998,"Pacoima Reservoir, California, USA",90501
271,Pann's,33.978183200000004,-118.37060770000001,"6710 La Tijera Blvd, Los Angeles, CA 90045, USA",90045
272,Pantages Theatre ,34.1020096,-118.32578889999999,"6233 Hollywood Blvd, Los Angeles, CA 90028, USA",90028
273,Original Pantry Cafe,34.046370399999994,-118.2629158,"877 S Figueroa St, Los Angeles, CA 90017, USA",90017
274,Paramount Pictures,34.083637700000004,-118.3217029,"5515 Melrose Ave, Los Angeles, CA 90038, USA",90038
275,Pasadena Museum of California Art,34.146944399999995,-118.14027779999999,"490 Union St, Pasadena, CA 91101, USA",91101
276,Pasadena Museum of History,34.149319,-118.16097099999999,"470 W Walnut St, Pasadena, CA 91103, USA",91103
277,Pasadena Playhouse,34.145114,-118.137375,"39 S El Molino Ave, Pasadena, CA 91101, USA",91101
278,Peck Park,33.7494792,-118.306541,"560 S Western Ave, San Pedro, CA 90732, USA",90732
279,Pellissier Building and Wiltern Theatre,34.061501,-118.308948,"3790 Wilshire Blvd, Los Angeles, CA 90010, USA",90010
280,Pershing Square ,34.048569,-118.2528917,"Pershing Square, 532 S Olive St, Los Angeles, CA 90013, USA",90013
281,Petersen Automotive Museum,34.0621116,-118.361649,"6060 Wilshire Blvd, Los Angeles, CA 90036, USA",90036
282,"Miracle Mile, Los Angeles",34.059534,-118.3491169,"Miracle Mile, Los Angeles, CA, USA",90036
283,Philippe's,34.059670399999995,-118.23714070000001,"1001 N Alameda St, Los Angeles, CA 90012, USA",90012
284,Pink's Hot Dogs,34.0838505,-118.3442797,"709 N La Brea Ave, Los Angeles, CA 90038, USA",90038
285,Pio Pico State Historic Park,33.9936111,-118.07111110000001,"Pio Pico State Historic Park, 6003 Pioneer Blvd, Whittier, CA 90606, USA",90606
286,"Playa del Rey, Los Angeles",33.956419399999994,-118.44223170000001,"Playa Del Rey, Los Angeles, CA, USA",90606
287,Plummer Park,34.0914636,-118.350834,"Plummer Park, 7377 Santa Monica Blvd, West Hollywood, CA 90046, USA",90046
288,Point Dume,34.001201,-118.80644199999999,"Cliffside Dr & Birdview Ave, Malibu, CA 90265, USA",90265
289,Point Fermin Light,33.7056802,-118.2937008,"807 W Paseo Del Mar, San Pedro, CA 90731, USA",90731
290,Point Mugu State Park,34.08556240000001,-119.06093500000001,"Point Mugu, California 90265, USA",90265
291,Port of Los Angeles,33.7365401,-118.264982,"Port of Los Angeles, Los Angeles, CA, USA",90265
292,Portal of the Folded Wings Shrine to Aviation,34.190275,-118.35382209999999,"3898 Valhalla Dr, Burbank, CA 91505, USA",91505
293,RMS Queen Mary,33.752635600000005,-118.1903235,"1126 Queens Hwy, Long Beach, CA 90802, USA",90802
294,"Long Beach, California",33.770050399999995,-118.1937395,"Long Beach, CA, USA",90802
295,Rainbow Bar and Grill,34.0908758,-118.3882402,"9015 Sunset Blvd, West Hollywood, CA 90069, USA",90069
296,Ralph J. Bunche House,34.0104115,-118.25376969999999,"1221 E 40th Pl, Los Angeles, CA 90011, USA",90011
297,Fireboat,33.7413065,-118.27920060000001,"444 S Harbor Blvd, San Pedro, CA 90731, USA",90731
298,Randy's Donuts,33.96185139999999,-118.37035759999999,"805 W Manchester Blvd, Inglewood, CA 90301, USA",90301
299,"Inglewood, California",33.9616801,-118.3531311,"Inglewood, CA, USA",90301
300,RAT Beach,33.8036267,-118.3947961,"Rat Beach, California 90274, USA",90274
301,Ren-Mar Studios,34.0861345,-118.3282368,"846 N Cahuenga Blvd, Los Angeles, CA 90038, USA",90038
302,Rio de Los Angeles State Park,34.098711,-118.23585020000002,"Rio De Los Angeles State Park, 1900 N San Fernando Rd, Los Angeles, CA 90065, USA",90065
303,Rocky Peak,34.314461200000004,-118.6431477,"Rocky Peak Park, Rocky Peak Rd, Simi Valley, CA 93063, USA",93063
304,Rodeo Drive,34.069839200000004,-118.4036591,"Rodeo Dr, California, USA",93063
305,"Beverly Hills, California",34.073620399999996,-118.40035630000001,"Beverly Hills, CA, USA",93063
306,Rodeo Drive Walk of Style,34.0684063,-118.4021801,"328 N Rodeo Dr, Beverly Hills, CA 90210, USA",90210
307,Roscoe's House of Chicken and Waffles,33.9618977,-118.36734650000001,"621 W Manchester Blvd, Inglewood, CA 90301, USA",90301
308,Rose Bowl ,34.161328399999995,-118.16764620000001,"1001 Rose Bowl Dr, Pasadena, CA 91103, USA",91103
309,Royce Hall,34.0728088,-118.44215919999999,"10745 Dickson Ct, Los Angeles, CA 90095, USA",90095
310,Runyon Canyon Park,34.1052437,-118.3489574,"Runyon Canyon Park, 2000 N Fuller Ave, Los Angeles, CA 90046, USA",90046
311,St. Andrews Bungalow Court,34.09874,-118.31101650000001,"1544 St Andrews Pl, Los Angeles, CA 90028, USA",90028
312,Salazar Park,34.023095399999995,-118.19023100000001,"Salazar Park, 3864 Whittier Blvd, Los Angeles, CA 90023, USA",90023
313,Samuel Freeman House,34.1056359,-118.338582,"1962 Glencoe Way, Los Angeles, CA 90068, USA",90068
314,San Fernando Building,34.047822,-118.24726319999999,"400 S Main St, Los Angeles, CA 90013, USA",90013
315,San Fernando Mission Cemetery,34.276067,-118.46525420000002,"San Fernando Mission Catholic Cemetery, 11160 Stranwood Ave, Mission Hills, CA 91345, USA",91345
316,San Fernando Pioneer Memorial Cemetery,34.320949,-118.44807,"14451 Bledsoe St, Sylmar, CA 91342, USA",91342
317,San Pedro Municipal Ferry Building,37.795837899999995,-122.3937801,"1 Ferry Building, San Francisco, CA 94111, USA",94111
318,Santa Anita Dam,34.183820399999995,-118.0192155,"Monrovia, CA 91016, USA",91016
319,Santa Anita Park,33.743108,-117.91836,"Santa Anita Park, 125 N Figueroa St, Santa Ana, CA 92703, USA",92703
320,"Santa Catalina Island, California",33.387885600000004,-118.41631029999999,"Santa Catalina Island, California 90704, USA",90704
321,Santa Monica Looff Hippodrome,34.010113,-118.4961279,"1624 Ocean Front Walk, Santa Monica, CA 90401, USA",90401
322,Santa Monica Pier,34.009921500000004,-118.4960063,"200 Santa Monica Pier, Santa Monica, CA 90401, USA",90401
323,"Santa Monica, California",34.01945429999999,-118.4911912,"Santa Monica, CA, USA",90401
324,Santa Monica State Beach,34.0129033,-118.5017237,"Santa Monica State Beach, California, USA",90401
325,Santa Susana Field Laboratory,34.232095799999996,-118.696054,"Bravo Rd, Brandeis, CA 93064, USA",93064
326,"Sears, Roebuck & Company Mail Order Building ",34.024634899999995,-118.2210446,"2650 E Olympic Blvd, Los Angeles, CA 90023, USA",90023
327,Self Help Graphics & Art,34.047354,-118.226481,"1300 E 1st St, Los Angeles, CA 90033, USA",90033
328,Self-Realization Fellowship Lake Shrine,34.0435029,-118.55293929999999,"17190 Sunset Blvd, Pacific Palisades, CA 90272, USA",90272
329,Sepulveda Dam,34.1672351,-118.4729283,"15758 Burbank Blvd, Van Nuys, CA 91406, USA",91406
330,Sepulveda Pass,34.12712,-118.47488999999999,"Sepulveda Pass, Los Angeles, CA 91403, USA",91403
331,Shakespeare Bridge,34.1054546,-118.27933610000001,"Shakespeare Bridge, Los Angeles, CA 90027, USA",90027
332,Sheats Goldstein Residence,34.0935505,-118.4344773,"10110 Angelo View Dr, Beverly Hills, CA 90210, USA",90210
333,Shrine Auditorium,34.023462200000004,-118.28126029999999,"665 W Jefferson Blvd, Los Angeles, CA 90007, USA",90007
334,Silver Lake Reservoir,34.0978188,-118.2650875,"Silver Lake Reservoir, Los Angeles, CA 90039, USA",90039
335,Sinai Temple ,34.0664536,-118.4288869,"10400 Wilshire Blvd, Los Angeles, CA 90024, USA",90024
336,Six Flags Magic Mountain,34.4253305,-118.59721909999999,"26101 Magic Mountain Pkwy, Valencia, CA 91355, USA",91355
337,"Skid Row, Los Angeles",34.044205,-118.2439226,"Skid Row, Los Angeles, CA, USA",91355
338,SoFi Stadium,33.953384899999996,-118.33871200000002,"1000 S Prairie Ave, Inglewood, CA 90301, USA",90301
339,Sound City Studios,34.2168866,-118.47028700000001,"15464 Cabrito Rd, Van Nuys, CA 91406, USA",91406
340,South Park Lofts,34.0451801,-118.25802990000001,"818 S Grand Ave, Los Angeles, CA 90017, USA",90017
341,Southern California Gas Company Complex,34.050075,-118.2531767,"555 W 5th St, Los Angeles, CA 90013, USA",90013
342,Southwest Museum,34.1003615,-118.20584380000001,"234 Museum Dr, Los Angeles, CA 90065, USA",90065
343,SS Lane Victory,33.71727070000001,-118.2731337,"3011 Miner St, San Pedro, CA 90731, USA",90731
344,Stahl House,34.1005052,-118.37029129999999,"BY RESERVATION ONLY, 1635 Woods Dr, West Hollywood, CA 90069, USA",90069
345,Staples Center,34.0430175,-118.2672541,"1111 S Figueroa St, Los Angeles, CA 90015, USA",90015
346,Stephen S. Wise Temple,34.1292464,-118.46983459999998,"15500 Stephen S Wise Dr, Los Angeles, CA 90077, USA",90077
347,"Streetcar Depot, West Los Angeles",34.057238700000006,-118.46022140000001,"11303 Pershing Ave, Los Angeles, CA 90025, USA",90025
348,"Sunset Junction, Los Angeles",34.0919825,-118.2805182,"4000 Sunset Blvd, Los Angeles, CA 90029, USA",90029
349,Sunset Strip,34.0912865,-118.37943030000001,"Sunset Strip, West Hollywood, CA, USA",90029
350,Sunset Tower,34.095150700000005,-118.372028,"8358 Sunset Blvd, Los Angeles, CA 90069, USA",90069
351,Tam O'Shanter Inn,34.1253942,-118.26428999999999,"2980 Los Feliz Blvd, Los Angeles, CA 90039, USA",90039
352,CBS Television City,34.075195799999996,-118.35867040000001,"7800 Beverly Blvd, Los Angeles, CA 90036, USA",90036
353,Temple Beth Israel of Highland Park and Eagle Rock,34.11235739999999,-118.19417390000001,"5711 Monte Vista St, Los Angeles, CA 90042, USA",90042
354,Terminal Annex,34.0580484,-118.2356347,"Terminal Annex Heliport, 900 N Alameda St, Los Angeles, CA 90012, USA",90012
355,"Thai Town, Los Angeles, California",34.101809700000004,-118.3035723,"Thai Town, Los Angeles, CA 90027, USA",90027
356,Theatre Row Hollywood,34.0905556,-118.33083329999998,"6476 Santa Monica Blvd, Los Angeles, CA 90038, USA",90038
357,Theme Building,33.9441588,-118.4024722,"201 World Way, Los Angeles, CA 90045, USA",90045
358,LAX,33.9415889,-118.40853,"Los Angeles International Airport (LAX), 1 World Way, Los Angeles, CA 90045, USA",90045
359,Theodore Payne Foundation,34.237302500000006,-118.3596747,"10459 Tuxford St, Sun Valley, CA 91352, USA",91352
360,"Thien Hau Temple, Los Angeles",34.0626741,-118.2408676,"756 Yale St, Los Angeles, CA 90012, USA",90012
361,Third Street Promenade,34.0164092,-118.49678940000001,"1351 3rd Street Promenade, Santa Monica, CA 90401, USA",90401
362,Tiki Ti,34.0974753,-118.28578229999998,"4427 Sunset Blvd, Los Angeles, CA 90027, USA",90027
363,Tillman Water Reclamation Plant,34.1810061,-118.4803115,"6100 Woodley Ave, Van Nuys, CA 91406, USA",91406
364,Title Guarantee and Trust Company Building,34.0491548,-118.25209579999999,"411 W 5th St, Los Angeles, CA 90013, USA",90013
365,Tom Bergin's,34.0600278,-118.36265559999998,"840 S Fairfax Ave, Los Angeles, CA 90036, USA",90036
366,"Topanga, California",34.091945200000005,-118.6021321,"Topanga, CA, USA",90036
367,"Toy District, Los Angeles",34.046581,-118.24462199999999,"Toy District, Los Angeles, CA 90013, USA",90013
368,Travel Town Museum,34.1544405,-118.30786499999999,"Travel Town Museum, 5200 Zoo Dr, Los Angeles, CA 90027, USA",90027
369,Triforium ,34.0541294,-118.24114099999998,"Fletcher Bowron Square, Los Angeles, CA 90012, USA",90012
370,The Troubadour ,34.0816324,-118.38934209999998,"9081 N Santa Monica Blvd, West Hollywood, CA 90069, USA",90069
371,Universal Studios Hollywood,34.13811680000001,-118.3533783,"100 Universal City Plaza, Universal City, CA 91608, USA",91608
372,"University of California, Los Angeles",34.068921,-118.4451811,"Los Angeles, CA 90095, USA",90095
373,University of Southern California,34.0223519,-118.285117,"Los Angeles, CA 90007, USA",90007
374,Upper Las Virgenes Canyon Open Space Preserve,34.185009,-118.66835309999999,"Upper Las Virgenes Canyon Open Space Preserve, Western end of, Victory Blvd, Woodland Hills, CA 91367, USA",91367
375,Urban Light,34.0630235,-118.35923729999999,"5905 Wilshire Blvd, Los Angeles, CA 90036, USA",90036
376,U.S. Bank Tower,34.0510801,-118.25435259999999,"U.S. Bank Tower, Los Angeles, CA 90071, USA",90071
377,USS Iowa Museum,33.7422615,-118.27728229999998,"250 S Harbor Blvd, Los Angeles, CA 90731, USA",90731
378,Van de Kamp Bakery Building,34.1138929,-118.24667779999999,"Van de Kamp Bakery Building, 2930 Fletcher Dr, Los Angeles, CA 90065, USA",90065
379,Van Nuys Branch,34.1838403,-118.4462881,"6250 Sylmar Ave, Van Nuys, CA 91401, USA",91401
380,Vasquez Rocks,34.4885098,-118.3206939,"Vasquez Rocks Natural Area Park, 10700 Escondido Canyon Rd, Agua Dulce, CA 91350, USA",91350
381,"Venice, California",33.9850469,-118.4694832,"Venice, Los Angeles, CA, USA",91350
382,Venice Branch,33.9877662,-118.4651101,"501 Venice Blvd, Venice, CA 90291, USA",90291
383,Venice Canal Historic District,33.9835027,-118.4676805,"Venice, CA 90292, USA",90292
384,Venice of America House,33.9850469,-118.4694832,"Venice, Los Angeles, CA, USA",90292
385,Verdugo Hills Cemetery,34.2617646,-118.2985034,"10625 Plainview Ave, Tujunga, CA 91042, USA",91042
386,Vincent Thomas Bridge,33.7495361,-118.27198510000001,"Vincent Thomas Bridge, San Pedro, CA 90731, USA",90731
387,The Viper Room,34.090438,-118.384724,"8852 Sunset Blvd, West Hollywood, CA 90069, USA",90069
388,Vista Theatre ,34.098282700000006,-118.2869511,"4473 Sunset Dr, Los Angeles, CA 90027, USA",90027
389,Vroman's Bookstore,34.1460773,-118.1360919,"695 E Colorado Blvd, Pasadena, CA 91101, USA",91101
390,"Pasadena, California",34.1477849,-118.1445155,"Pasadena, CA, USA",91101
391,Walt Disney Concert Hall,34.0553454,-118.249845,"111 S Grand Ave, Los Angeles, CA 90012, USA",90012
392,"Warner Center, Los Angeles",34.179269399999995,-118.5975107,"Warner Center, Los Angeles, CA, USA",90012
393,Warren Wilson Beach House,33.980008000000005,-118.46691200000001,"15 30th Ave, Venice, CA 90291, USA",90291
394,Watts Station,33.942953100000004,-118.24300009999999,"Watts Historic Train Station, 1686 E 103rd St, Los Angeles, CA 90002, USA",90002
395,Watts Towers,33.9388598,-118.2419477,"1727 E 107th St, Los Angeles, CA 90002, USA",90002
396,West Los Angeles Transit Center,34.036829600000004,-118.42454609999999,"Westwood / Rancho Park Station, Westwood Blvd & Exposition Blvd, Los Angeles, CA 90064, USA",90064
397,Westwood Village Memorial Park Cemetery,34.0583945,-118.4418203,"Pierce Brothers Westwood Village Memorial Park & Mortuary, 1218 Glendon Ave, Los Angeles, CA 90024, USA",90024
398,Whisky a Go Go,34.09084800000001,-118.3857624,"8901 Sunset Blvd, West Hollywood, CA 90069, USA",90069
399,"Whitley Heights, Los Angeles",34.1073706,-118.33333329999999,"Whitley Heights, Los Angeles, CA 90068, USA",90068
400,Whittier Narrows,34.0353391,-118.0570027,"Whittier Narrows Recreation Area, 750 S Santa Anita Ave, South El Monte, CA 91733, USA",91733
401,Will Rogers State Beach,34.026571000000004,-118.51887959999999,"17000 CA-1, Pacific Palisades, CA 90272, USA",90272
402,Will Rogers State Historic Park,34.0549876,-118.5125758,"Will Rogers State Historic Park, 1501 Will Rogers State Park Rd, Pacific Palisades, CA 90272, USA",90272
403,Wilmington Branch,33.7891414,-118.26278629999999,"1300 N Avalon Blvd, Wilmington, CA 90744, USA",90744
404,Wilshire Boulevard Temple,34.062134,-118.304961,"3663 Wilshire Blvd, Los Angeles, CA 90010, USA",90010
405,Wilshire Branch,34.0744674,-118.3117459,"149 N St Andrews Pl, Los Angeles, CA 90004, USA",90004
406,Wilshire Federal Building,34.0566568,-118.448893,"Wilshire Federal Building, 11000 Wilshire Blvd, Los Angeles, CA 90024, USA",90024
407,Wiltern Theatre,34.061501,-118.308948,"3790 Wilshire Blvd, Los Angeles, CA 90010, USA",90010
408,Young's Market Company Building,34.053864700000005,-118.27176440000001,"1610 West 7th Street Corner, S Union Ave, Los Angeles, CA 90017, USA",90017
409,Zamperini Field,33.8014667,-118.3417501,"Zamperini Field, 3301 Airport Dr, Torrance, CA 90505, USA",90505
410,Zanja Madre,34.12904520000001,-118.1145242,"The Huntington Library, Art Museum, and Botanical Gardens, 1151 Oxford Rd, San Marino, CA 91108, USA",91108
411,Zankou Chicken,34.0471585,-118.44372340000001,"1716 S Sepulveda Blvd, Los Angeles, CA 90025, USA",90025
412,Zen Center of Los Angeles,34.0550718,-118.300067,"923 Normandie Ave, Los Angeles, CA 90006, USA",90006
413,Zuma Beach,34.0218023,-118.83118970000001,"Zuma Beach, Malibu, CA 90265, USA",90265
